{"features":[{"geometry":{"coordinates":[[[5.46707,60.42023],[5.4685,60.42064],[5.47001,60.42106],[5.47094,60.42128],[5.47197,60.42155],[5.47267,60.42167],[5.47319,60.42177],[5.47467,60.42198],[5.4768,60.42222],[5.4789,60.42237],[5.48113,60.42248],[5.4824,60.42251],[5.48362,60.42251],[5.4851,60.42249],[5.49481,60.42209],[5.49939,60.42188],[5.50173,60.42172],[5.50396,60.42151],[5.50674,60.42119],[5.50951,60.42079],[5.51043,60.42063],[5.51177,60.42039],[5.5149,60.4198],[5.521,60.41877],[5.52687,60.41799],[5.52935,60.41776],[5.53196,60.41758],[5.53464,60.41747],[5.53745,60.41739],[5.54269,60.41747],[5.54811,60.41783],[5.55356,60.41848],[5.5639,60.4199],[5.58665,60.42303],[5.58943,60.42339],[5.59316,60.42381],[5.59643,60.42413],[5.59968,60.4244],[5.60274,60.4246],[5.60579,60.42477],[5.60889,60.42489],[5.6121,60.42497],[5.61522,60.425],[5.61973,60.42498],[5.62365,60.42495],[5.62696,60.42496],[5.62938,60.42504],[5.63176,60.42516],[5.63373,60.42531],[5.63574,60.42549],[5.63777,60.42571],[5.63965,60.42596],[5.64206,60.42632],[5.6444,60.42674],[5.6468,60.42723],[5.64949,60.42785],[5.6521,60.42855],[5.65648,60.42986],[5.68677,60.43896],[5.7088,60.44557],[5.73004,60.45193],[5.73243,60.45269],[5.73422,60.45334],[5.73602,60.45407],[5.73779,60.45489],[5.73928,60.45569],[5.7407,60.45654],[5.74192,60.45736],[5.74294,60.45813],[5.74404,60.45908],[5.74508,60.46012],[5.746,60.4612],[5.74684,60.46242],[5.74742,60.46353],[5.74789,60.46473],[5.74818,60.46585],[5.74832,60.46695],[5.74833,60.46806],[5.74823,60.46903],[5.74788,60.47137],[5.74747,60.47392],[5.74713,60.47601],[5.74683,60.47733],[5.74638,60.47867]],[[5.7463,60.47867],[5.74674,60.47733],[5.74704,60.47601],[5.74738,60.47392],[5.74778,60.47137],[5.74816,60.46903],[5.74824,60.46805],[5.74824,60.46695],[5.74809,60.46586],[5.7478,60.46474],[5.74734,60.46355],[5.74675,60.46243],[5.74591,60.46121],[5.74497,60.46012],[5.74396,60.4591],[5.74286,60.45815],[5.74181,60.45736],[5.74061,60.45656],[5.73921,60.45571],[5.73773,60.45493],[5.73596,60.4541],[5.73414,60.45336],[5.73239,60.45273],[5.72999,60.45197],[5.70875,60.4456],[5.68673,60.439],[5.65645,60.4299],[5.65202,60.42858],[5.64941,60.42788],[5.64667,60.42725],[5.6443,60.42677],[5.64206,60.42637],[5.63965,60.42601],[5.63773,60.42576],[5.63573,60.42553],[5.63372,60.42535],[5.63177,60.42521],[5.62935,60.42508],[5.62693,60.42501],[5.62363,60.42499]],[[5.73759,60.55089],[5.7371,60.55002],[5.73685,60.54951],[5.73662,60.54899],[5.73641,60.54848],[5.73623,60.54796],[5.73607,60.54742],[5.73593,60.54687],[5.7358,60.54625],[5.73569,60.54562],[5.73558,60.54491],[5.7355,60.5442],[5.73519,60.54082],[5.73446,60.53291],[5.73418,60.52896],[5.73384,60.52501],[5.73379,60.52393],[5.73378,60.52285],[5.73382,60.52178],[5.73391,60.5207],[5.73406,60.5195],[5.73425,60.51829],[5.73451,60.51709],[5.73483,60.51588],[5.73616,60.51106],[5.73885,60.50139],[5.74057,60.49527],[5.74267,60.48916],[5.74491,60.48268],[5.74533,60.48147]],[[5.62363,60.42499],[5.61973,60.42503],[5.61523,60.42504],[5.61206,60.42501],[5.60889,60.42494],[5.6058,60.42482],[5.60273,60.42466],[5.59969,60.42445],[5.59641,60.42418],[5.59316,60.42386],[5.5894,60.42344],[5.58663,60.42308],[5.56388,60.41994],[5.55357,60.41853],[5.54813,60.41789],[5.54266,60.41752],[5.53741,60.41743],[5.53463,60.41752],[5.53198,60.41764],[5.52938,60.41781],[5.52688,60.41804],[5.52104,60.41883],[5.51491,60.4199],[5.51192,60.42042],[5.51057,60.42065],[5.50953,60.42083],[5.50677,60.42123],[5.50397,60.42155],[5.50175,60.42176],[5.49939,60.42192],[5.49482,60.42213],[5.48565,60.42253],[5.48456,60.42256],[5.4832,60.42262],[5.48115,60.42266],[5.47925,60.42266],[5.47743,60.42261]],[[5.74542,60.48147],[5.745,60.48269],[5.74275,60.48917],[5.74065,60.49528],[5.73893,60.5014],[5.73625,60.51107],[5.73491,60.51588],[5.7346,60.51709],[5.73433,60.5183],[5.73414,60.51951],[5.734,60.52072],[5.73391,60.52179],[5.73387,60.52285],[5.73387,60.52393],[5.73392,60.525],[5.73535,60.54079],[5.73567,60.54419],[5.73581,60.54564],[5.7359,60.54625],[5.73601,60.54687],[5.73615,60.54741],[5.73632,60.54795],[5.73649,60.54846],[5.7367,60.54897],[5.73693,60.5495],[5.73718,60.55],[5.73767,60.55088]]],"type":"MultiLineString"},"properties":{"id":"arna_bane","kilde":"OpenStreetMap (planlagt dobbeltspor)"},"type":"Feature"}],"type":"FeatureCollection"}