{"features":[{"geometry":{"coordinates":[[[5.79704,61.19471],[5.7978,61.19646],[5.79852,61.19813],[5.79964,61.20076],[5.80091,61.20365],[5.80229,61.20645],[5.80336,61.20838],[5.80498,61.21103],[5.80617,61.21283],[5.80782,61.2151],[5.80915,61.2168],[5.8106,61.21856],[5.81215,61.22032],[5.81385,61.22214],[5.81503,61.22331],[5.81648,61.22475],[5.81781,61.22599],[5.81844,61.22661],[5.81896,61.22721],[5.81937,61.22777],[5.81979,61.22841],[5.82066,61.22992]],[[5.82066,61.22992],[5.82157,61.23146],[5.82222,61.23258],[5.82276,61.23382],[5.82328,61.23513]]],"type":"MultiLineString"},"properties":{"id":"bogstunnelen","kilde":"OpenStreetMap (kommunedelplan 2015)"},"type":"Feature"}],"type":"FeatureCollection"}