{"features":[{"geometry":{"coordinates":[[5.443,59.1845],[5.4435,59.196],[5.4465,59.2045],[5.452,59.214],[5.454,59.228],[5.466441,59.246207],[5.4655,59.2575],[5.4735,59.268],[5.47836,59.27915],[5.474,59.289],[5.468,59.305],[5.46416,59.3137],[5.449883,59.3179],[5.454,59.332],[5.46,59.347],[5.468,59.363],[5.476,59.377],[5.482,59.392],[5.478,59.408],[5.4633406,59.4299784],[5.466,59.44],[5.4679,59.4633],[5.4705,59.479],[5.4725,59.492],[5.47,59.505],[5.474,59.52],[5.476,59.535],[5.468,59.548],[5.454,59.56],[5.462,59.572],[5.476,59.586],[5.49,59.603],[5.486,59.62],[5.48,59.635],[5.4754426,59.649698],[5.478,59.662],[5.484,59.675],[5.487,59.69],[5.488,59.704]],"type":"LineString"},"properties":{"id":"bokn","kilde":"Håndtegnet forenklet linje (fil i prosjektmappen) + offisielt anleggsbelte"},"type":"Feature"}],"type":"FeatureCollection"}