{"features":[{"geometry":{"coordinates":[[[6.5188,61.97953],[6.51983,61.97913],[6.52226,61.97838],[6.52499,61.97801],[6.53163,61.97723],[6.5356,61.97653],[6.53911,61.97506],[6.54115,61.97376],[6.5434,61.97177],[6.54417,61.96993],[6.54419,61.96609],[6.54333,61.95191],[6.5427,61.94269],[6.54206,61.93335],[6.54204,61.93039],[6.54233,61.92908],[6.54318,61.92771],[6.54393,61.92696],[6.54589,61.92572],[6.54765,61.92504],[6.5511,61.92415],[6.55521,61.92295],[6.56482,61.91896],[6.56968,61.91678],[6.57582,61.91507],[6.57945,61.91435],[6.58261,61.91415],[6.58855,61.91401],[6.59723,61.91373],[6.60372,61.91306],[6.61265,61.91134],[6.62287,61.90878],[6.63562,61.90541],[6.63797,61.90465],[6.64145,61.90296],[6.64611,61.90043],[6.64909,61.89885],[6.65221,61.89671],[6.65414,61.89462],[6.65551,61.89189],[6.6555,61.89],[6.65512,61.88907],[6.64846,61.87401],[6.64383,61.86432],[6.64165,61.85978],[6.63962,61.85529],[6.63847,61.8528],[6.63769,61.84954],[6.63677,61.84664],[6.63512,61.84468],[6.63268,61.84314],[6.62981,61.84196],[6.62809,61.84152],[6.62241,61.84072],[6.61781,61.84018],[6.6149,61.83953],[6.60542,61.83634],[6.58601,61.83071],[6.58238,61.8297],[6.57727,61.8273],[6.57108,61.8239],[6.56526,61.82031],[6.5597,61.81694],[6.55452,61.81376],[6.55096,61.8113],[6.54825,61.80922],[6.54683,61.80767],[6.54551,61.80566],[6.54527,61.80507],[6.54494,61.80201],[6.54408,61.79832],[6.54275,61.79523],[6.54048,61.79017],[6.5387,61.78579],[6.53568,61.77842],[6.5339,61.77424],[6.53215,61.76998],[6.53066,61.76605],[6.52886,61.76209],[6.52729,61.75826],[6.524,61.75048],[6.52253,61.74699],[6.52126,61.74395],[6.51974,61.74104],[6.51823,61.73809],[6.5175,61.73644],[6.51744,61.73499],[6.51762,61.73212],[6.51775,61.73128],[6.51804,61.72925],[6.51943,61.72735],[6.5195,61.72725],[6.52088,61.72578],[6.52217,61.72407],[6.52514,61.72004],[6.52661,61.71815],[6.52696,61.71772]]],"type":"MultiLineString"},"properties":{"id":"byrkjelo_grodas","kilde":"OpenStreetMap (kommunedelplan 2019/2020)"},"type":"Feature"}],"type":"FeatureCollection"}