{"features":[{"geometry":{"coordinates":[[[5.72768,61.51871],[5.72807,61.5184],[5.72848,61.51815],[5.72891,61.51791],[5.72942,61.51767],[5.7302,61.51736],[5.7313,61.51695],[5.73203,61.51667],[5.73264,61.51645],[5.73331,61.5162],[5.73399,61.51595],[5.73504,61.51555],[5.73612,61.51515],[5.73828,61.51435],[5.73966,61.51384],[5.74182,61.51303],[5.74428,61.51212],[5.74551,61.51169],[5.74663,61.5113],[5.74794,61.51087],[5.74957,61.51038],[5.75096,61.50996],[5.75224,61.5096],[5.75369,61.50922],[5.75559,61.50874],[5.75756,61.50827],[5.75906,61.50795],[5.7612,61.5075],[5.76374,61.50697],[5.76613,61.50647],[5.7689,61.50589],[5.77162,61.50532],[5.7755,61.5045],[5.77888,61.5038],[5.78343,61.50284],[5.78604,61.50226],[5.78756,61.5019],[5.78926,61.50148],[5.79077,61.50109],[5.79236,61.50065],[5.79416,61.50014],[5.79633,61.49949],[5.79783,61.49901],[5.79933,61.49852],[5.80079,61.49801],[5.80543,61.49632],[5.80851,61.4952],[5.81178,61.494],[5.81688,61.49214],[5.81828,61.49162],[5.81903,61.49131],[5.81969,61.49098],[5.82035,61.49061],[5.82091,61.49023],[5.82155,61.4897],[5.82206,61.48915],[5.82243,61.4886],[5.82266,61.48814],[5.82284,61.48748],[5.82287,61.48689],[5.8228,61.48651],[5.82269,61.48607],[5.82251,61.48569],[5.82227,61.48525],[5.82189,61.48477],[5.82143,61.48433],[5.82091,61.4839],[5.82027,61.48347],[5.81952,61.48305],[5.81856,61.48262],[5.81749,61.48223],[5.81664,61.48195],[5.81581,61.48164]],[[5.81581,61.48164],[5.81506,61.48132],[5.81438,61.48097],[5.81366,61.48063],[5.81307,61.48041],[5.8124,61.48018]]],"type":"MultiLineString"},"properties":{"id":"erdal","kilde":"OpenStreetMap (vedtatt kommunedelplan E1–N12)"},"type":"Feature"}],"type":"FeatureCollection"}