{"features":[{"geometry":{"coordinates":[[[5.32436,60.43626],[5.32438,60.43655],[5.32442,60.43685],[5.32447,60.43715],[5.32454,60.43744],[5.32461,60.43774],[5.3247,60.43803],[5.32481,60.43832],[5.32492,60.43862],[5.32505,60.43891],[5.32519,60.4392],[5.32535,60.43948],[5.32551,60.43977],[5.32577,60.44019],[5.32583,60.44028]],[[5.32398,60.43626],[5.32401,60.43656],[5.32406,60.43687],[5.32411,60.43717],[5.32418,60.43747],[5.32427,60.43777],[5.32436,60.43807],[5.32447,60.43837],[5.3246,60.43866],[5.32473,60.43896],[5.32488,60.43925],[5.32558,60.44056]],[[5.33283,60.40903],[5.33236,60.40973],[5.3323,60.40983],[5.33223,60.40992],[5.33217,60.41002],[5.33211,60.41011],[5.33198,60.41033],[5.33185,60.41055],[5.33174,60.41078],[5.33163,60.411],[5.33154,60.41122],[5.3315,60.41131],[5.33147,60.41139],[5.33145,60.41144],[5.33143,60.4115],[5.33132,60.41176],[5.33119,60.41202],[5.33105,60.41228],[5.3309,60.41254],[5.33074,60.4128],[5.33056,60.41305],[5.33038,60.4133],[5.33017,60.41355],[5.32996,60.4138],[5.32989,60.41387],[5.32982,60.41395],[5.32977,60.414],[5.32973,60.41405],[5.32949,60.41433],[5.32926,60.4146],[5.32904,60.41488],[5.32884,60.41516],[5.32865,60.41544],[5.32847,60.41572],[5.32831,60.41601],[5.32815,60.4163],[5.32801,60.41659],[5.32789,60.41688],[5.32777,60.41717],[5.32767,60.41746],[5.32759,60.41776],[5.32751,60.41805],[5.32745,60.41835],[5.3274,60.41864],[5.32737,60.41894],[5.32735,60.41924],[5.32734,60.41953],[5.32734,60.41983],[5.32736,60.42013],[5.32739,60.42042],[5.3274,60.42049],[5.32741,60.42056],[5.32742,60.4206],[5.32743,60.42065],[5.32748,60.42111],[5.32752,60.42158],[5.32755,60.42205],[5.32757,60.42252],[5.32757,60.42298],[5.32755,60.42345],[5.32753,60.42392],[5.32748,60.42438],[5.32743,60.42485],[5.32736,60.42532],[5.32728,60.42578],[5.32718,60.42625],[5.32707,60.42671],[5.32694,60.42717],[5.3268,60.42764],[5.32665,60.4281],[5.32663,60.42814],[5.32662,60.42819],[5.32659,60.42825],[5.32475,60.43349],[5.32465,60.43379],[5.32456,60.4341],[5.32449,60.43441],[5.32443,60.43471],[5.32439,60.43502],[5.32436,60.43533],[5.32434,60.43564],[5.32434,60.43595],[5.32436,60.43626]],[[5.33244,60.40899],[5.32839,60.41499],[5.32833,60.41509],[5.32827,60.41519],[5.3282,60.41528],[5.32814,60.41538],[5.32797,60.41566],[5.3278,60.41594],[5.32766,60.41623],[5.32752,60.41651],[5.3274,60.4168],[5.32729,60.41709],[5.32719,60.41738],[5.3271,60.41767],[5.32703,60.41797],[5.32697,60.41826],[5.32693,60.41855],[5.32689,60.41885],[5.32687,60.41914],[5.32687,60.41943],[5.32687,60.41973],[5.32689,60.42002],[5.32692,60.42032],[5.32693,60.42038],[5.32694,60.42045],[5.32695,60.4205],[5.32695,60.42054],[5.32701,60.42101],[5.32706,60.42148],[5.32709,60.42194],[5.3271,60.42241],[5.3271,60.42288],[5.32709,60.42335],[5.32706,60.42381],[5.32702,60.42428],[5.32697,60.42475],[5.3269,60.42521],[5.32681,60.42568],[5.32672,60.42614],[5.32661,60.42661],[5.32648,60.42707],[5.32634,60.42754],[5.32619,60.428],[5.32618,60.42803],[5.32617,60.42806],[5.32609,60.42828],[5.32434,60.43353],[5.32424,60.43383],[5.32416,60.43413],[5.32409,60.43443],[5.32404,60.43474],[5.324,60.43504],[5.32398,60.43535],[5.32397,60.43565],[5.32397,60.43596],[5.32398,60.43626]]],"type":"MultiLineString"},"properties":{"id":"floyfjell","kilde":"Statens vegvesen, NTP 2025–2036 prosjektportefølje (ArcGIS)"},"type":"Feature"}],"type":"FeatureCollection"}