{"features":[{"geometry":{"coordinates":[[[6.34792,61.75028],[6.34779,61.75029],[6.34757,61.75028],[6.34712,61.75019],[6.34682,61.75015],[6.34656,61.75012],[6.34626,61.75014],[6.34601,61.75016],[6.34564,61.75023],[6.34526,61.75031],[6.34499,61.75035],[6.34457,61.75044],[6.34439,61.75046],[6.34419,61.75049],[6.3434,61.75054],[6.34316,61.75057],[6.34297,61.7506],[6.34253,61.75069],[6.3423,61.75073],[6.34208,61.75078],[6.34123,61.75094],[6.34106,61.75098],[6.34054,61.75113],[6.34014,61.75126],[6.34002,61.75132],[6.33969,61.75145],[6.33944,61.75158],[6.33918,61.75173],[6.33899,61.75184],[6.33847,61.75221],[6.33826,61.75235],[6.33826,61.75235],[6.3381,61.75244],[6.33793,61.75253],[6.33775,61.75259],[6.33758,61.75265],[6.33742,61.75269],[6.3372,61.75274],[6.337,61.75277],[6.33678,61.75279],[6.33652,61.75281],[6.33626,61.75281],[6.33585,61.7528],[6.33533,61.75278],[6.33492,61.75277],[6.33469,61.75277],[6.33444,61.75279],[6.33408,61.75283],[6.33369,61.7529],[6.33288,61.75306],[6.33251,61.75315],[6.33193,61.75328],[6.33122,61.75345],[6.33055,61.75363],[6.33024,61.75373],[6.3289,61.75412],[6.32863,61.75419],[6.32823,61.75428],[6.32789,61.75434],[6.32762,61.75437],[6.3273,61.7544],[6.32698,61.75442],[6.32671,61.75443],[6.32633,61.75443],[6.32554,61.75445],[6.32521,61.75447],[6.32479,61.75452],[6.32437,61.75459],[6.32403,61.75466],[6.32373,61.75473],[6.32328,61.75488],[6.32302,61.75497],[6.32272,61.75511],[6.32222,61.75536],[6.32175,61.75557],[6.3215,61.75566]]],"type":"MultiLineString"},"properties":{"id":"gullkista","kilde":"Dagens E39 (OpenStreetMap), strekningen rundt Gullkista. Ny tunnel går gjennom fjellet innenfor denne linja."},"type":"Feature"}],"type":"FeatureCollection"}