{"features":[{"geometry":{"coordinates":[[[5.49657,59.79889],[5.52196,59.83079],[5.51653,59.86726]],[[5.51684,59.86642],[5.50948,59.8775],[5.51581,59.88585]],[[5.51581,59.88585],[5.54041,59.89567]],[[5.54041,59.89567],[5.54831,59.90674],[5.53495,59.91976]],[[5.53495,59.91976],[5.51754,59.96451]],[[5.51754,59.96451],[5.5062,59.97899]],[[5.41882,59.98082],[5.40996,59.98096]],[[5.5062,59.97899],[5.46022,59.98668],[5.41882,59.98082]],[[5.40996,59.98096],[5.3707,59.99562],[5.36748,60.01298]],[[5.36748,60.01298],[5.36876,60.02293]],[[5.36876,60.02293],[5.37302,60.03837]],[[5.37302,60.03837],[5.37478,60.05711]],[[5.37478,60.05711],[5.37078,60.06762]],[[5.37078,60.06762],[5.36388,60.07912],[5.3887,60.10875],[5.37875,60.13227]],[[5.37875,60.13227],[5.37653,60.14304],[5.4284,60.1722],[5.44118,60.18841]],[[5.44118,60.18841],[5.44045,60.20445]]],"type":"MultiLineString"},"properties":{"id":"hordfast_simplified","kilde":""},"type":"Feature"}],"type":"FeatureCollection"}