{"features":[{"geometry":{"coordinates":[[[6.6803,60.81145],[6.68191,60.81242],[6.68204,60.8125],[6.68218,60.81258],[6.68231,60.81266],[6.68245,60.81274],[6.68259,60.81281],[6.68273,60.81289],[6.68298,60.81302],[6.68324,60.81314],[6.68351,60.81325],[6.68379,60.81336],[6.68407,60.81347],[6.68437,60.81357],[6.68467,60.81366],[6.68498,60.81375],[6.6853,60.81383],[6.68562,60.81391],[6.68595,60.81398],[6.68629,60.81404],[6.68663,60.8141],[6.68697,60.81415],[6.68732,60.81419],[6.68767,60.81423],[6.68802,60.81426],[6.68838,60.81428],[6.68874,60.8143],[6.6891,60.81431],[6.68946,60.81432],[6.68967,60.81431],[6.68988,60.81431],[6.69008,60.81431],[6.69029,60.8143],[6.6905,60.81429],[6.69071,60.81429],[6.69096,60.81428],[6.6912,60.81427],[6.69145,60.81426],[6.69169,60.81426],[6.69194,60.81425],[6.69218,60.81425],[6.69256,60.81425],[6.69295,60.81425],[6.69333,60.81426],[6.69371,60.81427]],[[6.69371,60.81427],[6.69416,60.8143],[6.6946,60.81432],[6.69504,60.81436],[6.69549,60.8144],[6.69592,60.81445],[6.69636,60.8145],[6.69679,60.81456],[6.69722,60.81463],[6.69764,60.81471],[6.69806,60.81479],[6.69847,60.81487],[6.69888,60.81496],[6.69928,60.81506],[6.69967,60.81517],[6.70006,60.81528],[6.70044,60.81539],[6.70082,60.81552],[6.70118,60.81564],[6.70154,60.81578],[6.70189,60.81591],[6.70223,60.81606],[6.70256,60.8162],[6.70288,60.81636],[6.70319,60.81651],[6.7035,60.81668],[6.70379,60.81684],[6.70407,60.81701],[6.70434,60.81719],[6.7046,60.81737],[6.70474,60.81747],[6.70488,60.81758],[6.70502,60.81768],[6.70515,60.81779],[6.70529,60.81789],[6.70542,60.818],[6.70566,60.81819],[6.7059,60.81838],[6.70737,60.81955],[6.70885,60.8207],[6.71034,60.82186],[6.71184,60.82301],[6.71336,60.82416],[6.71488,60.8253],[6.71642,60.82644],[6.71797,60.82758],[6.71954,60.82871],[6.72111,60.82984],[6.7227,60.83097],[6.7243,60.83209],[6.72591,60.8332],[6.72753,60.83432],[6.72916,60.83542],[6.73081,60.83653],[6.73247,60.83763],[6.73413,60.83873],[6.73581,60.83982],[6.7375,60.84091],[6.73921,60.84199],[6.74092,60.84307],[6.74265,60.84414],[6.74438,60.84522],[6.74613,60.84628],[6.74789,60.84734],[6.74966,60.8484],[6.74996,60.84858],[6.75027,60.84876],[6.75066,60.84899],[6.75105,60.84923],[6.75143,60.84946],[6.75182,60.84969],[6.75221,60.84992],[6.75259,60.85016],[6.75324,60.85056],[6.75388,60.85097],[6.7545,60.85139],[6.75512,60.8518],[6.75574,60.85222],[6.75615,60.85251],[6.75655,60.8528],[6.75695,60.85309],[6.75735,60.85338],[6.75775,60.85367],[6.75815,60.85397],[6.75854,60.85426],[6.75893,60.85455],[6.75904,60.85463],[6.75914,60.8547],[6.75924,60.85478],[6.75934,60.85485],[6.75945,60.85493],[6.75955,60.855],[6.75966,60.85507],[6.75977,60.85514],[6.76,60.85528],[6.76025,60.85542],[6.7605,60.85555],[6.76076,60.85567],[6.76104,60.85579],[6.76132,60.85591],[6.76161,60.85601],[6.76191,60.85612],[6.76222,60.85621],[6.76254,60.85631],[6.76286,60.85639],[6.76319,60.85647],[6.76353,60.85654],[6.76387,60.8566],[6.76422,60.85666],[6.76457,60.85671],[6.76492,60.85676],[6.76528,60.8568],[6.76564,60.85683],[6.76601,60.85685],[6.76637,60.85687],[6.76671,60.85688],[6.76704,60.85688],[6.76737,60.85688],[6.76757,60.85687],[6.76777,60.85687],[6.76797,60.85686],[6.76817,60.85685],[6.76836,60.85684],[6.76856,60.85683],[6.76871,60.85682],[6.76886,60.85682],[6.769,60.85681],[6.76915,60.8568],[6.7693,60.8568],[6.76945,60.8568],[6.76959,60.85679],[6.76974,60.85679],[6.76975,60.85679],[6.7699,60.85679],[6.77005,60.85679],[6.7702,60.8568],[6.77034,60.8568],[6.77049,60.8568],[6.77064,60.85681],[6.77079,60.85682],[6.77093,60.85682],[6.77113,60.85683],[6.77132,60.85684],[6.77152,60.85684],[6.77172,60.85685],[6.77191,60.85685],[6.77211,60.85686],[6.77241,60.85685],[6.77272,60.85684],[6.77302,60.85683],[6.77332,60.85681],[6.77362,60.85678],[6.77391,60.85675],[6.7741,60.85673],[6.77429,60.8567],[6.77448,60.85667],[6.77467,60.85664],[6.77485,60.85661],[6.77504,60.85658],[6.7752,60.85656],[6.77536,60.85653],[6.77552,60.8565],[6.77568,60.85648],[6.77584,60.85646],[6.776,60.85643],[6.77617,60.85641],[6.77633,60.8564],[6.77662,60.85637],[6.77691,60.85635],[6.7772,60.85633],[6.7775,60.85632],[6.77779,60.85632],[6.77808,60.85632],[6.77838,60.85634],[6.77867,60.85635],[6.77896,60.85638],[6.77925,60.85641],[6.77953,60.85645],[6.77969,60.85647],[6.77985,60.8565],[6.78001,60.85652],[6.78017,60.85655],[6.78032,60.85658],[6.78048,60.85661],[6.78064,60.85664],[6.78079,60.85667],[6.78115,60.85674],[6.7815,60.85682],[6.78207,60.85694],[6.78264,60.85707],[6.7832,60.8572],[6.78376,60.85734]]],"type":"MultiLineString"},"properties":{"id":"hylland","kilde":"Statens vegvesen, NTP 2025–2036 prosjektportefølje (ArcGIS)"},"type":"Feature"}],"type":"FeatureCollection"}