{"features":[{"geometry":{"coordinates":[[[6.55217,60.0772],[6.55215,60.07725],[6.55217,60.07746],[6.55219,60.0776],[6.5522,60.07765],[6.55223,60.07772],[6.55229,60.07781],[6.55237,60.07789],[6.55247,60.07796],[6.55263,60.07807],[6.55268,60.07811],[6.55276,60.07819],[6.55282,60.07825],[6.55286,60.07832],[6.55289,60.0784],[6.55291,60.07847],[6.55291,60.07854],[6.5529,60.07859],[6.55274,60.07949],[6.55271,60.07963],[6.55268,60.07975],[6.55263,60.07987],[6.55257,60.07999],[6.5525,60.0801],[6.55243,60.08019],[6.55234,60.08028],[6.55225,60.08037],[6.55214,60.08046],[6.55191,60.08063],[6.55135,60.08101],[6.55119,60.08113],[6.55105,60.08124],[6.55094,60.08135],[6.55083,60.08146],[6.55074,60.08158],[6.55065,60.0817],[6.55063,60.08175],[6.55058,60.08185],[6.55054,60.08194],[6.5505,60.08204],[6.55048,60.08214],[6.55047,60.08224],[6.55046,60.08234],[6.55046,60.08243],[6.55048,60.08252],[6.55049,60.08256],[6.55053,60.08268],[6.55061,60.08286],[6.55067,60.08295],[6.55073,60.08305],[6.55095,60.08335],[6.55106,60.0835],[6.55114,60.08364],[6.55119,60.08378],[6.55122,60.08387],[6.55124,60.08395],[6.55124,60.08404],[6.55124,60.08412],[6.55123,60.0842],[6.55122,60.08429],[6.55115,60.08447],[6.55105,60.08466],[6.55076,60.08519],[6.55068,60.08536],[6.55061,60.08554],[6.55054,60.08579],[6.55006,60.08764],[6.55,60.08787],[6.54992,60.0881],[6.54983,60.08833],[6.5492,60.0892],[6.54911,60.08935],[6.54904,60.08948],[6.54898,60.08961],[6.5489,60.08979],[6.54884,60.08998],[6.5488,60.09022],[6.54877,60.09054],[6.54875,60.09149],[6.54874,60.09188],[6.54874,60.09207],[6.54875,60.09224],[6.54877,60.09236],[6.54884,60.09272],[6.54891,60.09307]]],"type":"MultiLineString"},"properties":{"id":"rv13_djupevik","kilde":"OpenStreetMap: anleggsstrekninga på rv 13 (highway=construction) frå Djupevik, forlenga til sørportalen på Kviturtunnelen"},"type":"Feature"}],"type":"FeatureCollection"}