{"features":[{"geometry":{"coordinates":[[[5.79693,61.37992],[5.79797,61.38017],[5.79814,61.3802],[5.79831,61.38024],[5.79848,61.38029],[5.79864,61.38033],[5.79881,61.38037],[5.79897,61.38041],[5.79914,61.38045],[5.7993,61.3805],[5.79946,61.38055],[5.79961,61.3806],[5.79981,61.38066],[5.8,61.38072],[5.80018,61.38079],[5.80032,61.38085],[5.80047,61.38091],[5.80061,61.38097],[5.80074,61.38103],[5.80088,61.38109],[5.80101,61.38116],[5.80114,61.38122],[5.80127,61.38128],[5.8014,61.38135],[5.80153,61.38141],[5.8017,61.38149],[5.80186,61.38157],[5.80202,61.38165],[5.80219,61.38173],[5.80235,61.38181],[5.80252,61.38189],[5.80269,61.38197],[5.80286,61.38205],[5.80319,61.38219],[5.80354,61.38233],[5.80389,61.38247],[5.80425,61.3826],[5.80461,61.38273],[5.80499,61.38285],[5.80518,61.38291],[5.80538,61.38297],[5.80558,61.38303],[5.80578,61.38309],[5.80598,61.38314],[5.80618,61.3832],[5.80638,61.38326],[5.80658,61.38332],[5.80685,61.38339],[5.80712,61.38347],[5.80739,61.38354],[5.80765,61.38362],[5.80792,61.3837],[5.80819,61.38378],[5.80845,61.38386],[5.80871,61.38394],[5.80916,61.38409],[5.80961,61.38424],[5.81005,61.3844],[5.81048,61.38457],[5.8109,61.38473],[5.81132,61.38491],[5.81172,61.38509],[5.81212,61.38527],[5.8125,61.38546],[5.81288,61.38565],[5.81324,61.38585],[5.8136,61.38605],[5.81394,61.38626],[5.81428,61.38646],[5.8146,61.38668],[5.81492,61.3869],[5.81522,61.38712],[5.81551,61.38734],[5.81579,61.38757],[5.81594,61.3877],[5.81609,61.38783],[5.81624,61.38796],[5.81638,61.38809],[5.81652,61.38823],[5.81666,61.38836],[5.8168,61.38849],[5.81694,61.38863],[5.81708,61.38876],[5.81722,61.38889],[5.81737,61.38903],[5.81751,61.38916],[5.81765,61.38929],[5.8178,61.38943],[5.81795,61.38956],[5.8181,61.38969],[5.81816,61.38974],[5.81839,61.38992],[5.81862,61.3901],[5.81886,61.39027],[5.81903,61.3904],[5.81921,61.39052],[5.81939,61.39064],[5.81957,61.39077],[5.81975,61.39089],[5.81993,61.39101],[5.82012,61.39113],[5.82031,61.39125],[5.82072,61.39151],[5.82113,61.39178],[5.82154,61.39205],[5.82195,61.39232],[5.82236,61.39258],[5.82277,61.39285],[5.82317,61.39312],[5.82358,61.39339],[5.82397,61.39367],[5.82437,61.39394],[5.82476,61.39421],[5.82514,61.39449],[5.82563,61.39485],[5.82612,61.39522],[5.82659,61.39559],[5.82706,61.39596],[5.82752,61.39633],[5.82796,61.39671],[5.8283,61.397],[5.82863,61.39729],[5.82896,61.39758],[5.82928,61.39788],[5.8296,61.39817],[5.82991,61.39847],[5.83022,61.39877],[5.83053,61.39906],[5.83084,61.39936],[5.83115,61.39966],[5.83145,61.39996],[5.83176,61.40025],[5.83209,61.40058],[5.83242,61.4009],[5.83402,61.40245],[5.83563,61.404],[5.83725,61.40555],[5.83889,61.40709],[5.84054,61.40863],[5.8422,61.41017],[5.84387,61.4117],[5.84556,61.41323],[5.84726,61.41476],[5.84897,61.41628],[5.85069,61.4178],[5.85243,61.41932],[5.85418,61.42084],[5.85594,61.42235],[5.85771,61.42385],[5.8595,61.42536],[5.8613,61.42686],[5.86173,61.42722],[5.86216,61.42758],[5.86259,61.42793],[5.86303,61.42829],[5.86346,61.42864],[5.8639,61.429],[5.86435,61.42935],[5.86479,61.42971],[5.86524,61.43006],[5.8657,61.43041],[5.86616,61.43076],[5.86662,61.43111],[5.86709,61.43145],[5.86756,61.4318],[5.86805,61.43214],[5.86853,61.43248],[5.86903,61.43282],[5.86953,61.43315],[5.87003,61.43349],[5.87055,61.43382],[5.87119,61.43422],[5.87183,61.43461],[5.87249,61.435],[5.87316,61.43538],[5.87384,61.43576],[5.87454,61.43614],[5.87524,61.43651],[5.87595,61.43687],[5.87668,61.43723],[5.87741,61.43759],[5.87816,61.43794],[5.87892,61.43829],[5.87968,61.43863],[5.88046,61.43896],[5.88124,61.43929],[5.88204,61.43962],[5.88284,61.43994],[5.88315,61.44006],[5.88345,61.44018],[5.88376,61.44029],[5.88407,61.44041],[5.88438,61.44052],[5.8847,61.44064],[5.88502,61.44075],[5.88534,61.44086],[5.88567,61.44096],[5.886,61.44106],[5.88647,61.44121],[5.88696,61.44135],[5.88745,61.44148],[5.88795,61.4416],[5.88845,61.44172],[5.88896,61.44184],[5.88948,61.44194],[5.89,61.44204],[5.89053,61.44214],[5.89106,61.44223],[5.89159,61.44231],[5.89213,61.44239],[5.89268,61.44245],[5.89323,61.44252],[5.89378,61.44257],[5.89433,61.44262],[5.89489,61.44267],[5.89544,61.4427],[5.896,61.44273],[5.89656,61.44275],[5.89713,61.44277],[5.89769,61.44278],[5.89804,61.44278],[5.89839,61.44278],[5.89862,61.44278],[5.89885,61.44278],[5.89898,61.44278],[5.89912,61.44278],[5.89926,61.44278],[5.8994,61.44278],[5.89953,61.44278],[5.89967,61.44278],[5.89981,61.44278],[5.89995,61.44279],[5.90014,61.4428],[5.90033,61.44282],[5.90053,61.44284],[5.90072,61.44287],[5.90117,61.44293]]],"type":"MultiLineString"},"properties":{"id":"storehaugen","kilde":"Statens vegvesen, NTP 2025–2036 prosjektportefølje (ArcGIS)"},"type":"Feature"}],"type":"FeatureCollection"}