{"features":[{"geometry":{"coordinates":[[[6.54236,61.05488],[6.5436,61.05499],[6.54412,61.05504],[6.54455,61.0551],[6.54496,61.05516],[6.54535,61.05525],[6.54569,61.05533],[6.54605,61.05544],[6.54647,61.05558],[6.54717,61.05581],[6.54806,61.05611],[6.54822,61.05615],[6.54835,61.05617],[6.54846,61.05617],[6.54855,61.05616],[6.54864,61.05615],[6.54873,61.05612],[6.5488,61.05608],[6.54886,61.05604],[6.54889,61.05599],[6.5489,61.05594],[6.54889,61.05589],[6.54885,61.05584],[6.54879,61.0558],[6.54872,61.05576],[6.54863,61.05573],[6.54854,61.0557],[6.5483,61.05562],[6.54695,61.0552],[6.54635,61.05501],[6.5458,61.05484],[6.54547,61.05472],[6.54522,61.05463],[6.54496,61.05452],[6.54472,61.05441],[6.54449,61.05429],[6.54427,61.05416],[6.54407,61.05404],[6.54388,61.0539],[6.54371,61.05377],[6.54356,61.05364],[6.54342,61.0535],[6.54329,61.05334],[6.54317,61.05319],[6.54307,61.05302],[6.54297,61.05283],[6.54286,61.05256],[6.54274,61.05221],[6.54256,61.05165],[6.54238,61.05114],[6.54215,61.05046],[6.54184,61.04953],[6.5416,61.04883],[6.54143,61.04831],[6.54135,61.04808],[6.54125,61.04786],[6.54113,61.04763],[6.54101,61.04744],[6.54085,61.04722],[6.54067,61.04701],[6.54046,61.0468],[6.54023,61.04657],[6.53983,61.04621],[6.53946,61.04588],[6.53917,61.04561],[6.53888,61.04532],[6.53866,61.04509],[6.53843,61.04481],[6.53823,61.04456],[6.53806,61.04432],[6.5379,61.04407],[6.53773,61.04378],[6.53761,61.04354],[6.53746,61.04324],[6.5373,61.0429],[6.53718,61.04266],[6.53708,61.04247],[6.53699,61.04231],[6.53686,61.04214],[6.53674,61.04199],[6.53658,61.04182],[6.5364,61.04166],[6.5362,61.04151],[6.53597,61.04134],[6.53572,61.04118],[6.53546,61.04105],[6.5352,61.04091],[6.5345,61.04059],[6.53394,61.04034],[6.53343,61.0401],[6.53312,61.03994],[6.53278,61.03978],[6.53248,61.03962],[6.53218,61.03945],[6.53184,61.03926],[6.53141,61.039],[6.53099,61.03873],[6.53061,61.03847],[6.53022,61.03819],[6.52985,61.0379],[6.5295,61.0376],[6.5292,61.03734],[6.52892,61.03707],[6.5287,61.03685],[6.52844,61.03657],[6.52817,61.03626],[6.52796,61.036],[6.52777,61.03574],[6.52758,61.03546],[6.52741,61.03519],[6.5272,61.03483],[6.527,61.03448],[6.5268,61.03412],[6.5266,61.03376],[6.52636,61.03333]],[[6.5264,61.0333],[6.515,61],[6.5,60.96],[6.49,60.925],[6.485,60.902]]],"type":"MultiLineString"},"properties":{"id":"vikafjellet","kilde":"OpenStreetMap (nordre del) + skisse av 14,9 km tunnel Hola–Bøadalen (omtrentlig)"},"type":"Feature"}],"type":"FeatureCollection"}